{
    "links": {
        "self": "http://www.neowsapp.com/rest/v1/neo/3744991?api_key=iIulBulltgU6a56xZRHN4H3l9WmuAYTsLGpBGhQ2"
    },
    "id": "3744991",
    "neo_reference_id": "3744991",
    "name": "(2016 DZ21)",
    "designation": "2016 DZ21",
    "nasa_jpl_url": "http://ssd.jpl.nasa.gov/sbdb.cgi?sstr=3744991",
    "absolute_magnitude_h": 25.4,
    "estimated_diameter": {
        "kilometers": {
            "estimated_diameter_min": 0.022108281,
            "estimated_diameter_max": 0.0494356193
        },
        "meters": {
            "estimated_diameter_min": 22.1082810359,
            "estimated_diameter_max": 49.435619262
        },
        "miles": {
            "estimated_diameter_min": 0.0137374447,
            "estimated_diameter_max": 0.0307178602
        },
        "feet": {
            "estimated_diameter_min": 72.5337327539,
            "estimated_diameter_max": 162.1903570994
        }
    },
    "is_potentially_hazardous_asteroid": false,
    "close_approach_data": [
        {
            "close_approach_date": "2013-02-08",
            "close_approach_date_full": "2013-Feb-08 21:19",
            "epoch_date_close_approach": 1360358340000,
            "relative_velocity": {
                "kilometers_per_second": "3.7373544882",
                "kilometers_per_hour": "13454.4761574358",
                "miles_per_hour": "8360.0882546022"
            },
            "miss_distance": {
                "astronomical": "0.1420424257",
                "lunar": "55.2545035973",
                "kilometers": "21249244.334353259",
                "miles": "13203668.1671386142"
            },
            "orbiting_body": "Earth"
        },
        {
            "close_approach_date": "2016-02-22",
            "close_approach_date_full": "2016-Feb-22 21:16",
            "epoch_date_close_approach": 1456175760000,
            "relative_velocity": {
                "kilometers_per_second": "3.0047984308",
                "kilometers_per_hour": "10817.2743507681",
                "miles_per_hour": "6721.433609787"
            },
            "miss_distance": {
                "astronomical": "0.0934024657",
                "lunar": "36.3335591573",
                "kilometers": "13972809.921468059",
                "miles": "8682301.4815308542"
            },
            "orbiting_body": "Earth"
        },
        {
            "close_approach_date": "2172-09-16",
            "close_approach_date_full": "2172-Sep-16 03:41",
            "epoch_date_close_approach": 6396896460000,
            "relative_velocity": {
                "kilometers_per_second": "5.4295738443",
                "kilometers_per_hour": "19546.4658394244",
                "miles_per_hour": "12145.4137322801"
            },
            "miss_distance": {
                "astronomical": "0.0858757952",
                "lunar": "33.4056843328",
                "kilometers": "12846836.046476224",
                "miles": "7982653.7587069312"
            },
            "orbiting_body": "Mars"
        },
        {
            "close_approach_date": "2178-02-18",
            "close_approach_date_full": "2178-Feb-18 11:23",
            "epoch_date_close_approach": 6568082580000,
            "relative_velocity": {
                "kilometers_per_second": "3.1991949936",
                "kilometers_per_hour": "11517.1019769528",
                "miles_per_hour": "7156.2792811794"
            },
            "miss_distance": {
                "astronomical": "0.094613871",
                "lunar": "36.804795819",
                "kilometers": "14154033.57405477",
                "miles": "8794908.637585026"
            },
            "orbiting_body": "Earth"
        },
        {
            "close_approach_date": "2181-03-05",
            "close_approach_date_full": "2181-Mar-05 10:11",
            "epoch_date_close_approach": 6664068660000,
            "relative_velocity": {
                "kilometers_per_second": "3.1423935715",
                "kilometers_per_hour": "11312.6168574906",
                "miles_per_hour": "7029.2201801447"
            },
            "miss_distance": {
                "astronomical": "0.1378852107",
                "lunar": "53.6373469623",
                "kilometers": "20627333.825221209",
                "miles": "12817230.8960983242"
            },
            "orbiting_body": "Earth"
        }
    ],
    "orbital_data": {
        "orbit_id": "11",
        "orbit_determination_date": "2017-04-06 08:27:59",
        "first_observation_date": "2016-02-29",
        "last_observation_date": "2016-04-01",
        "data_arc_in_days": 32,
        "observations_used": 52,
        "orbit_uncertainty": "7",
        "minimum_orbit_intersection": ".0870245",
        "jupiter_tisserand_invariant": "4.975",
        "epoch_osculation": "2459000.5",
        "eccentricity": ".177475188702063",
        "semi_major_axis": "1.302682596505069",
        "inclination": "5.355408216579986",
        "ascending_node_longitude": "340.0394577704606",
        "orbital_period": "543.0706642207246",
        "perihelion_distance": "1.071488756871439",
        "perihelion_argument": "159.8287457308938",
        "aphelion_distance": "1.5338764361387",
        "perihelion_time": "2459055.207375683896",
        "mean_anomaly": "323.7346361279464",
        "mean_motion": ".6628971581747645",
        "equinox": "J2000",
        "orbit_class": {
            "orbit_class_type": "AMO",
            "orbit_class_description": "Near-Earth asteroid orbits similar to that of 1221 Amor",
            "orbit_class_range": "1.017 AU < q (perihelion) < 1.3 AU"
        }
    },
    "is_sentry_object": false
}